KUIPER-00158            
1 65776U 25217Q   25295.12093588  .00053590  00000+0  14991-2 0  9994
2 65776  51.8706 314.0395 0004732 179.9253 180.1734 15.36128903  4104
KUIPER-00163            
1 65777U 25217R   25295.13512926  .00033312  00000+0  96350-3 0  9998
2 65777  51.8623 314.1175 0007221 199.2953 160.7760 15.35290125  4106
KUIPER-00165            
1 65778U 25217S   25295.17857961  .00039865  00000+0  11029-2 0  9992
2 65778  51.8713 313.6780 0003794 151.8055 208.3138 15.36610237  4111
KUIPER-00166            
1 65779U 25217T   25295.17327363  .00041874  00000+0  11456-2 0  9998
2 65779  51.8723 313.6439 0003428 127.2224 232.9076 15.36937405  4116
KUIPER-00167            
1 65780U 25217U   25295.12700372  .00051523  00000+0  14554-2 0  9994
2 65780  51.8690 314.0770 0005371 188.6726 171.4168 15.35839352  4100
KUIPER-00168            
1 65781U 25217V   25295.16145213  .00045289  00000+0  12145-2 0  9992
2 65781  51.8723 313.5670 0002443  68.1198 292.0048 15.37522600  4118
KUIPER-00169            
1 65782U 25217W   25295.17492215  .00034872  00000+0  96017-3 0  9998
2 65782  51.8728 313.6540 0002982 144.2335 215.8851 15.36825241  4119
KUIPER-00170            
1 65783U 25217X   25295.12531411  .00059458  00000+0  16716-2 0  9990
2 65783  51.8680 314.0638 0006006 182.0479 178.0484 15.35920545  4103
KUIPER-00171            
1 65784U 25217Y   25295.16667823  .00239485  00000+0  60109-2 0  9997
2 65784  51.8692 313.7493 0004843 169.1057 117.2171 15.38550264  4239
KUIPER-00172            
1 65785U 25217Z   25295.16770829  .00045084  00000+0  12201-2 0  9999
2 65785  51.8728 313.6075 0002587 112.2640 247.8621 15.37240880  4111
KUIPER-00173            
1 65786U 25217AA  25295.17156707  .00034241  00000+0  93702-3 0  9993
2 65786  51.8716 313.6335 0002668 128.3130 231.8097 15.37025325  4115
KUIPER-00174            
1 65787U 25217AB  25295.16331914  .00041032  00000+0  11053-2 0  9992
2 65787  51.8728 313.5769 0002826  84.5699 275.5610 15.37427117  4119
KUIPER-00176            
1 65788U 25217AC  25295.16742479  .00041670  00000+0  11299-2 0  9995
2 65788  51.8723 313.6064 0002331  87.3341 272.7912 15.37217352  4112
STARLINK-35330          
1 65791U 25218A   25295.17337051  .00081262  00000+0  14794-2 0  9991
2 65791  97.6022 155.8957 0001481  88.9925 271.1495 15.49209060  4099
STARLINK-35373          
1 65792U 25218B   25295.17302557  .00072539  00000+0  13222-2 0  9997
2 65792  97.6020 155.8974 0001465  92.5162 267.6256 15.49208802  4091
STARLINK-35383          
1 65793U 25218C   25295.17233750  .00084698  00000+0  15407-2 0  9992
2 65793  97.6019 155.8981 0001690  85.7409 274.4034 15.49217999  4093
STARLINK-35378          
1 65794U 25218D   25295.17199250  .00081362  00000+0  14809-2 0  9999
2 65794  97.6022 155.8982 0001687  90.2119 269.9325 15.49213600  4091
STARLINK-35406          
1 65795U 25218E   25295.17268140  .00084669  00000+0  15406-2 0  9992
2 65795  97.6022 155.8974 0001627  92.8858 267.2579 15.49210378  4096
STARLINK-35390          
1 65796U 25218F   25295.17130338  .00079144  00000+0  14412-2 0  9998
2 65796  97.6020 155.9000 0001660  90.5448 269.5993 15.49209978  4092
STARLINK-35412          
1 65797U 25218G   25295.17095823  .00074535  00000+0  13580-2 0  9992
2 65797  97.6022 155.8997 0001652  90.8335 269.3104 15.49212784  4099
STARLINK-35414          
1 65798U 25218H   25295.17164782  .00073379  00000+0  13374-2 0  9990
2 65798  97.6020 155.8997 0001522  87.4280 272.7144 15.49207487  4091
STARLINK-35357          
1 65799U 25218J   25295.17026925  .00081961  00000+0  14913-2 0  9993
2 65799  97.6021 155.9002 0001871  92.2408 267.9056 15.49221384  4094
STARLINK-35300          
1 65800U 25218K   25295.10602220  .00081743  00000+0  14879-2 0  9996
2 65800  97.6023 155.8315 0001541  93.7522 266.3905 15.49210795  4081
STARLINK-35296          
1 65801U 25218L   25295.16957780  .00075928  00000+0  13832-2 0  9993
2 65801  97.6025 155.9013 0000627  89.3303 270.8019 15.49212733  4093
STARLINK-34919          
1 65802U 25218M   25295.16992435  .00072952  00000+0  13294-2 0  9996
2 65802  97.6023 155.9009 0001764  87.9611 272.1841 15.49214034  4090
STARLINK-35286          
1 65803U 25218N   25295.16923544  .00088215  00000+0  16041-2 0  9994
2 65803  97.6024 155.9015 0001604  93.7990 266.3444 15.49213990  4091
STARLINK-35266          
1 65804U 25218P   25295.16889074  .00069523  00000+0  12676-2 0  9995
2 65804  97.6022 155.9024 0001563  92.7537 267.3892 15.49213975  4091
STARLINK-35273          
1 65805U 25218Q   25295.16854694  .00067095  00000+0  12237-2 0  9991
2 65805  97.6023 155.9019 0001629  86.6538 273.4898 15.49215615  4090
STARLINK-35047          
1 65806U 25218R   25295.16785661  .00086283  00000+0  15693-2 0  9998
2 65806  97.6024 155.9033 0001573  90.7230 269.4201 15.49215178  4098
STARLINK-35285          
1 65807U 25218S   25295.16820110  .00086221  00000+0  15680-2 0  9996
2 65807  97.6024 155.9030 0001571  95.9730 264.1700 15.49218357  4094
STARLINK-34580          
1 65808U 25218T   25295.16751272  .00089147  00000+0  16206-2 0  9994
2 65808  97.6023 155.9043 0001639  90.2566 269.8872 15.49217514  4094
STARLINK-35289          
1 65809U 25218U   25295.16716772  .00086710  00000+0  15767-2 0  9995
2 65809  97.6024 155.9039 0001588  91.2625 268.8807 15.49220794  4092
STARLINK-35268          
1 65810U 25218V   25295.16647904  .00066373  00000+0  12110-2 0  9999
2 65810  97.6025 155.9050 0001639  94.0315 266.1122 15.49207110  4090
STARLINK-35224          
1 65811U 25218W   25295.16682346  .00081344  00000+0  14805-2 0  9997
2 65811  97.6025 155.9045 0001656  89.1748 270.9692 15.49215361  4091
STARLINK-35271          
1 65812U 25218X   25295.16613429  .00051625  00000+0  94423-3 0  9998
2 65812  97.6027 155.9053 0001632  91.7294 268.4143 15.49202622  4091
STARLINK-35215          
1 65813U 25218Y   25295.16579015  .00055366  00000+0  10119-2 0  9996
2 65813  97.6026 155.9063 0001654  88.3353 271.8086 15.49205803  4092
STARLINK-35157          
1 65814U 25218Z   25295.16544522  .00091798  00000+0  16682-2 0  9992
2 65814  97.6026 155.9064 0001635  91.3445 268.7992 15.49218314  4091
FENGYUN 3H              
1 65815U 25219A   25295.14654167  .00000177  00000+0  10389-3 0  9999
2 65815  98.6493 235.8802 0001522  70.6042 289.5299 14.19882750  3601
CZ-4C R/B               
1 65816U 25219B   25295.13373058  .00000999  00000+0  23305-3 0  9990
2 65816  98.6361 237.1693 0120583 325.1649  34.1695 14.52848467  3685
HULIANWANG DIGUI-82     
1 65817U 25220A   25295.20411737  .00000024  00000+0  11556-4 0  9993
2 65817  86.4920 124.4885 0001185  65.4238 294.7037 13.55163306  3371
HULIANWANG DIGUI-83     
1 65818U 25220B   25294.97877763  .00000040  00000+0  35151-4 0  9997
2 65818  86.4988 124.5718 0001129 108.4074 251.7201 13.55801301  3343
HULIANWANG DIGUI-84     
1 65819U 25220C   25294.89991506  .00000045  00000+0  41266-4 0  9990
2 65819  86.3596 124.8248 0009003  44.8247 315.3631 13.56391888  3331
HULIANWANG DIGUI-85     
1 65820U 25220D   25294.97034699  .00000183  00000+0  23842-3 0  9994
2 65820  86.4961 124.5779 0001776  83.7254 276.4100 13.56013534  3499
HULIANWANG DIGUI-86     
1 65821U 25220E   25293.49065472  .00000053  00000+0  49822-4 0  9997
2 65821  86.4808 125.0768 0001886 210.9785 149.1258 13.59239206  3140
CZ-6A R/B               
1 65822U 25220F   25294.97840591  .00000055  00000+0  26488-4 0  9990
2 65822  86.5054 124.1624 0105269  40.4356 320.4580 13.94172193  3418
STARLINK-35392          
1 65823U 25221A   25294.91667824 -.00094714  00000+0 -17138-2 0  9999
2 65823  53.1606  15.1080 0001007  85.8584   1.5276 15.49339526  4864
STARLINK-35281          
1 65824U 25221B   25295.16667823 -.00017988  00000+0 -31617-3 0  9994
2 65824  53.1606  13.9067 0001096  98.3493 306.1322 15.49303742  4904
STARLINK-35397          
1 65825U 25221C   25295.16667823 -.00025431  00000+0 -45074-3 0  9999
2 65825  53.1605  13.8993 0001128  96.7546 311.5630 15.49305450  4908
STARLINK-35381          
1 65826U 25221D   25295.16667823 -.00017912  00000+0 -31481-3 0  9992
2 65826  53.1605  13.9018 0001185  97.6208 308.7782 15.49302489  4901
STARLINK-35393          
1 65827U 25221E   25295.16667823 -.00013036  00000+0 -22679-3 0  9995
2 65827  53.1605  13.8623 0001042  96.4881 329.0823 15.49300617  4902
STARLINK-35396          
1 65828U 25221F   25295.16667823  .00055970  00000+0  10083-2 0  9992
2 65828  53.1606  13.8951 0001202  93.9653 316.2661 15.49278829  4902
STARLINK-35244          
1 65829U 25221G   25295.16667823  .00087805  00000+0  21845-2 0  9993
2 65829  53.1605  15.1127 0001242  81.0258  89.0522 15.39556422  4879
STARLINK-35368          
1 65830U 25221H   25295.16667823  .00125197  00000+0  22289-2 0  9995
2 65830  53.1605  13.8822 0001117  93.9472 322.0483 15.49236162  4861
STARLINK-35337          
1 65831U 25221J   25295.16667823 -.00022677  00000+0 -40092-3 0  9990
2 65831  53.1606  13.8909 0001183 101.5887 310.5633 15.49304310  4903
STARLINK-35277          
1 65832U 25221K   25295.16667823  .00018159  00000+0  33408-3 0  9992
2 65832  53.1606  13.8873 0001084  93.3677 320.7034 15.49284201  4903
STARLINK-35345          
1 65833U 25221L   25295.16667823 -.00015683  00000+0 -27456-3 0  9990
2 65833  53.1606  13.8782 0001117 101.5235 316.3771 15.49300922  4900
STARLINK-35320          
1 65834U 25221M   25295.16667823 -.00005822  00000+0 -96749-4 0  9997
2 65834  53.1605  13.8711 0001141  96.8299 324.9062 15.49295456  4908
STARLINK-35349          
1 65835U 25221N   25295.16667823 -.00021425  00000+0 -37828-3 0  9997
2 65835  53.1606  13.8739 0001087  96.2149 323.6017 15.49304154  4909
STARLINK-35356          
1 65836U 25221P   25295.16667823 -.00014092  00000+0 -24585-3 0  9996
2 65836  53.1606  13.8655 0001161  99.5681 324.0824 15.49300331  4901
